[{"OBJECT_NAME":"STARLINK-5236","OBJECT_ID":"2023-010F","EPOCH":"2026-03-09T22:43:04.842912","MEAN_MOTION":14.98342601,"ECCENTRICITY":0.00031251,"INCLINATION":70.0009,"RA_OF_ASC_NODE":23.9711,"ARG_OF_PERICENTER":268.8514,"MEAN_ANOMALY":91.2288,"EPHEMERIS_TYPE":0,"CLASSIFICATION_TYPE":"U","NORAD_CAT_ID":55274,"ELEMENT_SET_NO":999,"REV_AT_EPOCH":17331,"BSTAR":-0.00032101058,"MEAN_MOTION_DOT":-3.922e-5,"MEAN_MOTION_DDOT":0},{"OBJECT_NAME":"METHANESAT","OBJECT_ID":"2024-043D","EPOCH":"2026-03-09T22:12:33.121440","MEAN_MOTION":14.97588653,"ECCENTRICITY":0.00100526,"INCLINATION":97.8288,"RA_OF_ASC_NODE":199.6058,"ARG_OF_PERICENTER":350.2517,"MEAN_ANOMALY":9.8508,"EPHEMERIS_TYPE":0,"CLASSIFICATION_TYPE":"U","NORAD_CAT_ID":59101,"ELEMENT_SET_NO":999,"REV_AT_EPOCH":10979,"BSTAR":0.00032562202,"MEAN_MOTION_DOT":3.748e-5,"MEAN_MOTION_DDOT":0}]
